{
  "type": "FeatureCollection",
  "features": [
    {
      "type": "Feature",
      "properties": {
        "norad_id": 66412,
        "name": "HULIANWANG DIGUI 13A",
        "group": "last-30-days",
        "lat": -7.261009863741991,
        "lon": 96.4251900577927,
        "alt_km": 830.2028593740124,
        "timestamp": "2025-12-10T18:56:58.831469+00:00",
        "meta_object_name": "HULIANWANG DIGUI 13A",
        "meta_object_id": "2025-258A",
        "meta_epoch": "2025-12-09T03:12:44.519040",
        "meta_mean_motion": 14.19925548,
        "meta_eccentricity": 0.00045892,
        "meta_inclination": 50.0057,
        "meta_ra_of_asc_node": 277.2127,
        "meta_arg_of_pericenter": 347.8692,
        "meta_mean_anomaly": 12.2108,
        "meta_ephemeris_type": 0,
        "meta_classification_type": "U",
        "meta_norad_cat_id": 66412,
        "meta_element_set_no": 999,
        "meta_rev_at_epoch": 414,
        "meta_bstar": 0.00032047821,
        "meta_mean_motion_dot": 5.27e-06,
        "meta_mean_motion_ddot": 0,
        "tle_line1": "1 66412U 25258A   25343.13384860  .00000527  00000+0  32048-3 0  9994",
        "tle_line2": "2 66412  50.0057 277.2127 0004589 347.8692  12.2108 14.19925548  4142"
      },
      "geometry": {
        "type": "Point",
        "coordinates": [
          96.4251900577927,
          -7.261009863741991
        ]
      }
    },
    {
      "type": "Feature",
      "properties": {
        "norad_id": 66413,
        "name": "HULIANWANG DIGUI 13B",
        "group": "last-30-days",
        "lat": 32.609912906420305,
        "lon": 57.89796834711053,
        "alt_km": 827.6991089759604,
        "timestamp": "2025-12-10T18:56:58.831516+00:00",
        "meta_object_name": "HULIANWANG DIGUI 13B",
        "meta_object_id": "2025-258B",
        "meta_epoch": "2025-12-09T08:30:42.060672",
        "meta_mean_motion": 14.18998764,
        "meta_eccentricity": 0.00064107,
        "meta_inclination": 50.0063,
        "meta_ra_of_asc_node": 276.3756,
        "meta_arg_of_pericenter": 353.6698,
        "meta_mean_anomaly": 6.4131,
        "meta_ephemeris_type": 0,
        "meta_classification_type": "U",
        "meta_norad_cat_id": 66413,
        "meta_element_set_no": 999,
        "meta_rev_at_epoch": 417,
        "meta_bstar": 0.00044989424,
        "meta_mean_motion_dot": 7.88e-06,
        "meta_mean_motion_ddot": 0,
        "tle_line1": "1 66413U 25258B   25343.35465348  .00000788  00000+0  44989-3 0  9996",
        "tle_line2": "2 66413  50.0063 276.3756 0006410 353.6698   6.4131 14.18998764  4177"
      },
      "geometry": {
        "type": "Point",
        "coordinates": [
          57.89796834711053,
          32.609912906420305
        ]
      }
    },
    {
      "type": "Feature",
      "properties": {
        "norad_id": 66414,
        "name": "HULIANWANG DIGUI 13C",
        "group": "last-30-days",
        "lat": 18.62283425170029,
        "lon": 73.92459296273188,
        "alt_km": 829.0288322665674,
        "timestamp": "2025-12-10T18:56:58.831537+00:00",
        "meta_object_name": "HULIANWANG DIGUI 13C",
        "meta_object_id": "2025-258C",
        "meta_epoch": "2025-12-09T03:21:13.066848",
        "meta_mean_motion": 14.19246085,
        "meta_eccentricity": 0.00047063,
        "meta_inclination": 50.0081,
        "meta_ra_of_asc_node": 277.2503,
        "meta_arg_of_pericenter": 342.5024,
        "meta_mean_anomaly": 17.5724,
        "meta_ephemeris_type": 0,
        "meta_classification_type": "U",
        "meta_norad_cat_id": 66414,
        "meta_element_set_no": 999,
        "meta_rev_at_epoch": 414,
        "meta_bstar": 0.00041183983,
        "meta_mean_motion_dot": 7.11e-06,
        "meta_mean_motion_ddot": 0,
        "tle_line1": "1 66414U 25258C   25343.13973457  .00000711  00000+0  41184-3 0  9998",
        "tle_line2": "2 66414  50.0081 277.2503 0004706 342.5024  17.5724 14.19246085  4145"
      },
      "geometry": {
        "type": "Point",
        "coordinates": [
          73.92459296273188,
          18.62283425170029
        ]
      }
    },
    {
      "type": "Feature",
      "properties": {
        "norad_id": 66415,
        "name": "HULIANWANG DIGUI 13D",
        "group": "last-30-days",
        "lat": -15.805572818860417,
        "lon": 104.01362248186497,
        "alt_km": 830.6151136784538,
        "timestamp": "2025-12-10T18:56:58.831550+00:00",
        "meta_object_name": "HULIANWANG DIGUI 13D",
        "meta_object_id": "2025-258D",
        "meta_epoch": "2025-12-09T03:09:52.475040",
        "meta_mean_motion": 14.20116062,
        "meta_eccentricity": 0.00047716,
        "meta_inclination": 50.0116,
        "meta_ra_of_asc_node": 277.2068,
        "meta_arg_of_pericenter": 0.2986,
        "meta_mean_anomaly": 359.7928,
        "meta_ephemeris_type": 0,
        "meta_classification_type": "U",
        "meta_norad_cat_id": 66415,
        "meta_element_set_no": 999,
        "meta_rev_at_epoch": 414,
        "meta_bstar": 0.00038203452,
        "meta_mean_motion_dot": 6.62e-06,
        "meta_mean_motion_ddot": 0,
        "tle_line1": "1 66415U 25258D   25343.13185735  .00000662  00000+0  38203-3 0  9996",
        "tle_line2": "2 66415  50.0116 277.2068 0004771   0.2986 359.7928 14.20116062  4148"
      },
      "geometry": {
        "type": "Point",
        "coordinates": [
          104.01362248186497,
          -15.805572818860417
        ]
      }
    },
    {
      "type": "Feature",
      "properties": {
        "norad_id": 66416,
        "name": "HULIANWANG DIGUI 13E",
        "group": "last-30-days",
        "lat": 10.066065124974257,
        "lon": 81.75889360575809,
        "alt_km": 829.4986702523902,
        "timestamp": "2025-12-10T18:56:58.831562+00:00",
        "meta_object_name": "HULIANWANG DIGUI 13E",
        "meta_object_id": "2025-258E",
        "meta_epoch": "2025-12-09T08:22:19.522848",
        "meta_mean_motion": 14.19348736,
        "meta_eccentricity": 0.00039271,
        "meta_inclination": 50.0045,
        "meta_ra_of_asc_node": 276.3517,
        "meta_arg_of_pericenter": 345.3839,
        "meta_mean_anomaly": 14.6958,
        "meta_ephemeris_type": 0,
        "meta_classification_type": "U",
        "meta_norad_cat_id": 66416,
        "meta_element_set_no": 999,
        "meta_rev_at_epoch": 417,
        "meta_bstar": 0.00047173942,
        "meta_mean_motion_dot": 8.4e-06,
        "meta_mean_motion_ddot": 0,
        "tle_line1": "1 66416U 25258E   25343.34883707  .00000840  00000+0  47174-3 0  9999",
        "tle_line2": "2 66416  50.0045 276.3517 0003927 345.3839  14.6958 14.19348736  4177"
      },
      "geometry": {
        "type": "Point",
        "coordinates": [
          81.75889360575809,
          10.066065124974257
        ]
      }
    },
    {
      "type": "Feature",
      "properties": {
        "norad_id": 66417,
        "name": "HULIANWANG DIGUI 13F",
        "group": "last-30-days",
        "lat": 1.8652971869221646,
        "lon": 88.72221265672795,
        "alt_km": 829.4486886787727,
        "timestamp": "2025-12-10T18:56:58.831574+00:00",
        "meta_object_name": "HULIANWANG DIGUI 13F",
        "meta_object_id": "2025-258F",
        "meta_epoch": "2025-12-09T08:19:34.689792",
        "meta_mean_motion": 14.1954336,
        "meta_eccentricity": 0.0003281,
        "meta_inclination": 49.9994,
        "meta_ra_of_asc_node": 276.3221,
        "meta_arg_of_pericenter": 337.0094,
        "meta_mean_anomaly": 23.067,
        "meta_ephemeris_type": 0,
        "meta_classification_type": "U",
        "meta_norad_cat_id": 66417,
        "meta_element_set_no": 999,
        "meta_rev_at_epoch": 417,
        "meta_bstar": 0.0004116435,
        "meta_mean_motion_dot": 7.16e-06,
        "meta_mean_motion_ddot": 0,
        "tle_line1": "1 66417U 25258F   25343.34692928  .00000716  00000+0  41164-3 0  9998",
        "tle_line2": "2 66417  49.9994 276.3221 0003281 337.0094  23.0670 14.19543360  4179"
      },
      "geometry": {
        "type": "Point",
        "coordinates": [
          88.72221265672795,
          1.8652971869221646
        ]
      }
    },
    {
      "type": "Feature",
      "properties": {
        "norad_id": 66418,
        "name": "HULIANWANG DIGUI 13G",
        "group": "last-30-days",
        "lat": -21.793130753154994,
        "lon": 109.84486614942264,
        "alt_km": 831.2565818907469,
        "timestamp": "2025-12-10T18:56:58.831586+00:00",
        "meta_object_name": "HULIANWANG DIGUI 13G",
        "meta_object_id": "2025-258G",
        "meta_epoch": "2025-12-09T09:52:43.669056",
        "meta_mean_motion": 14.19995679,
        "meta_eccentricity": 0.00047642,
        "meta_inclination": 50.0018,
        "meta_ra_of_asc_node": 275.9967,
        "meta_arg_of_pericenter": 355.5056,
        "meta_mean_anomaly": 4.5812,
        "meta_ephemeris_type": 0,
        "meta_classification_type": "U",
        "meta_norad_cat_id": 66418,
        "meta_element_set_no": 999,
        "meta_rev_at_epoch": 418,
        "meta_bstar": 0.00034781431,
        "meta_mean_motion_dot": 5.87e-06,
        "meta_mean_motion_ddot": 0,
        "tle_line1": "1 66418U 25258G   25343.41161654  .00000587  00000+0  34781-3 0  9997",
        "tle_line2": "2 66418  50.0018 275.9967 0004764 355.5056   4.5812 14.19995679  4189"
      },
      "geometry": {
        "type": "Point",
        "coordinates": [
          109.84486614942264,
          -21.793130753154994
        ]
      }
    }
  ]
}